Satellite: AAUSAT2
Catalog number: 32788
Epoch time:      11138.68125120
Element set:    0980
Inclination:      097.8499 deg
RA of node:       203.2585 deg
Eccentricity:    0.0014132
Arg of perigee:   274.4829 deg
Mean anomaly:     085.4802 deg
Mean motion:   14.82574964 rev/day
Decay rate:      1.323e-05 rev/day^2
Epoch rev:           16520
Checksum:              312

Satellite: DO-64
Catalog number: 32789
Epoch time:      11138.76744715
Element set:    0999
Inclination:      097.8589 deg
RA of node:       204.2917 deg
Eccentricity:    0.0014136
Arg of perigee:   270.6767 deg
Mean anomaly:     089.2801 deg
Mean motion:   14.83017431 rev/day
Decay rate:      1.915e-05 rev/day^2
Epoch rev:           16522
Checksum:              343

Satellite: CO-66
Catalog number: 32791
Epoch time:      11138.65691929
Element set:    0984
Inclination:      097.8508 deg
RA of node:       202.9721 deg
Eccentricity:    0.0014383
Arg of perigee:   270.8677 deg
Mean anomaly:     089.0853 deg
Mean motion:   14.82088583 rev/day
Decay rate:       9.72e-06 rev/day^2
Epoch rev:           16513
Checksum:              356

Satellite: RS-30
Catalog number: 32953
Epoch time:      11139.65447805
Element set:     743
Inclination:      082.5021 deg
RA of node:       180.4604 deg
Eccentricity:    0.0020495
Arg of perigee:   089.2596 deg
Mean anomaly:     271.0835 deg
Mean motion:   12.43012694 rev/day
Decay rate:        1.0e-07 rev/day^2
Epoch rev:           13554
Checksum:              281

Satellite: TACSAT-3
Catalog number: 35001
Epoch time:      11139.87820983
Element set:     594
Inclination:      040.4552 deg
RA of node:       344.5876 deg
Eccentricity:    0.0023625
Arg of perigee:   354.8662 deg
Mean anomaly:     005.1908 deg
Mean motion:   15.48271702 rev/day
Decay rate:     1.5858e-04 rev/day^2
Epoch rev:           11269
Checksum:              313

Satellite: PHARMSAT
Catalog number: 35002
Epoch time:      11138.93559011
Element set:    0558
Inclination:      040.4729 deg
RA of node:       347.9189 deg
Eccentricity:    0.0025557
Arg of perigee:   354.4257 deg
Mean anomaly:     005.6272 deg
Mean motion:   15.47963544 rev/day
Decay rate:     1.2900e-04 rev/day^2
Epoch rev:           11257
Checksum:              301

Satellite: HAWKSAT1
Catalog number: 35003
Epoch time:      11139.87161154
Element set:     622
Inclination:      040.4568 deg
RA of node:       317.4912 deg
Eccentricity:    0.0021750
Arg of perigee:   020.4076 deg
Mean anomaly:     339.7599 deg
Mean motion:   15.62494516 rev/day
Decay rate:     6.0204e-04 rev/day^2
Epoch rev:           11299
Checksum:              287

Satellite: CP6
Catalog number: 35004
Epoch time:      11139.81375700
Element set:     625
Inclination:      040.4555 deg
RA of node:       310.6484 deg
Eccentricity:    0.0020424
Arg of perigee:   021.4153 deg
Mean anomaly:     338.7510 deg
Mean motion:   15.67835434 rev/day
Decay rate:     8.7864e-04 rev/day^2
Epoch rev:           11305
Checksum:              277

Satellite: METEOR-M
Catalog number: 35865
Epoch time:      11139.72133798
Element set:     380
Inclination:      098.7081 deg
RA of node:       195.2153 deg
Eccentricity:    0.0003175
Arg of perigee:   102.0906 deg
Mean anomaly:     258.0575 deg
Mean motion:   14.21838547 rev/day
Decay rate:       1.76e-06 rev/day^2
Epoch rev:            8654
Checksum:              308

