AAUSAT2
1 32788U 08021F   11138.68125120  .00001323  00000-0  17077-3 0 09802
2 32788 097.8499 203.2585 0014132 274.4829 085.4802 14.82574964165209
DO-64
1 32789U 08021G   11138.76744715  .00001915  00000-0  24176-3 0 09994
2 32789 097.8589 204.2917 0014136 270.6767 089.2801 14.83017431165228
CO-66
1 32791U 08021J   11138.65691929  .00000972  00000-0  12865-3 0 09841
2 32791 097.8508 202.9721 0014383 270.8677 089.0853 14.82088583165136
RS-30
1 32953U 08025A   11139.65447805  .00000010  00000-0  00000 0 0  7438
2 32953 082.5021 180.4604 0020495 089.2596 271.0835 12.43012694135540
TACSAT-3
1 35001U 09028A   11139.87820983  .00015858  00000-0  29380-3 0  5941
2 35001 040.4552 344.5876 0023625 354.8662 005.1908 15.48271702112699
PHARMSAT
1 35002U 09028B   11138.93559011  .00012900  00000-0  24218-3 0 05589
2 35002 040.4729 347.9189 0025557 354.4257 005.6272 15.47963544112579
HAWKSAT1
1 35003U 09028C   11139.87161154  .00060204  00000-0  64756-3 0  6224
2 35003 040.4568 317.4912 0021750 020.4076 339.7599 15.62494516112991
CP6
1 35004U 09028D   11139.81375700  .00087864  00000-0  76004-3 0  6256
2 35004 040.4555 310.6484 0020424 021.4153 338.7510 15.67835434113054
METEOR-M
1 35865U 09049A   11139.72133798  .00000176  00000-0  10000-3 0  3806
2 35865 098.7081 195.2153 0003175 102.0906 258.0575 14.21838547 86540
